     2              NAVIGATION DATA                         RINEX VERSION / TYPE
CCRINEXN V1.6.0 UX  CDDIS               28-OCT-23 23:31     PGM / RUN BY / DATE 
IGS BROADCAST EPHEMERIS FILE                                COMMENT             
    0.2049D-07 -0.7451D-08 -0.1192D-06  0.5960D-07          ION ALPHA           
    0.1249D+06 -0.3277D+05 -0.2621D+06  0.1311D+06          ION BETA            
    0.000000000000D+00-0.888178419700D-15   589824     2285 DELTA-UTC: A0,A1,T,W
    18                                                      LEAP SECONDS        
                                                            END OF HEADER       
 1 23 10 27 16  0  0.0 0.163365155459D-03-0.227373675443D-12 0.000000000000D+00
    0.104000000000D+03-0.665312500000D+02 0.349728853325D-08 0.717499758288D-01
   -0.352039933205D-05 0.128922576550D-01 0.136699527502D-04 0.515364114189D+04
    0.489600000000D+06-0.763684511185D-07-0.361014496811D+00 0.206753611565D-06
    0.990706276630D+00 0.136562500000D+03 0.990612567950D+00-0.772960768347D-08
   -0.792890169915D-10 0.100000000000D+01 0.228500000000D+04 0.000000000000D+00
    0.400000000000D+01 0.630000000000D+02 0.512227400000D-08 0.104000000000D+03
    0.482460000000D+06 0.400000000000D+01 0.000000000000D+00 0.000000000000D+00
 2 23 10 27 16  0  0.0-0.536704435945D-03 0.488853402203D-11 0.000000000000D+00
    0.320000000000D+02-0.950000000000D+02 0.390016245742D-08 0.270651019749D+01
   -0.499747693539D-05 0.161185103934D-01 0.129342079163D-04 0.515374543190D+04
    0.489600000000D+06 0.258907675743D-06-0.462936597728D+00 0.745058059692D-08
    0.967826716245D+00 0.129281250000D+03-0.132565953886D+01-0.755424323598D-08
   -0.255724937684D-09 0.100000000000D+01 0.228500000000D+04 0.000000000000D+00
    0.200000000000D+01 0.000000000000D+00-0.176951289177D-07 0.320000000000D+02
    0.485736000000D+06 0.400000000000D+01 0.000000000000D+00 0.000000000000D+00
 3 23 10 27 16  0  0.0-0.528763048351D-04 0.237605490838D-10 0.000000000000D+00
    0.850000000000D+02 0.645312500000D+02 0.434339520556D-08-0.112494254678D+01
    0.355951488018D-05 0.509768724441D-02 0.860728323460D-05 0.515357225227D+04
    0.489600000000D+06 0.838190317154D-07 0.667625620121D+00 0.106170773506D-06
    0.981256046739D+00 0.227656250000D+03 0.111816527449D+01-0.801426239763D-08
    0.777889545079D-09 0.100000000000D+01 0.228500000000D+04 0.000000000000D+00
    0.280000000000D+01 0.000000000000D+00 0.186264514923D-08 0.850000000000D+02
    0.482418000000D+06 0.400000000000D+01 0.000000000000D+00 0.000000000000D+00
 4 23 10 27 16  0  0.0 0.196334905922D-03 0.106865627458D-10 0.000000000000D+00
    0.187000000000D+03-0.461875000000D+02 0.515914347046D-08 0.191264130539D+01
   -0.231713056564D-05 0.265407154802D-02 0.496394932270D-05 0.515360548973D+04
    0.489600000000D+06 0.242143869400D-07 0.174807354571D+01 0.154599547386D-06
    0.963144835648D+00 0.285781250000D+03-0.305555313827D+01-0.850035407387D-08
   -0.360729311538D-09 0.100000000000D+01 0.228500000000D+04 0.000000000000D+00
    0.200000000000D+01 0.000000000000D+00-0.419095158577D-08 0.955000000000D+03
    0.482418000000D+06 0.400000000000D+01 0.000000000000D+00 0.000000000000D+00
 5 23 10 27 16  0  0.0-0.148111954331D-03-0.147792889038D-11 0.000000000000D+00
    0.100000000000D+02 0.558750000000D+02 0.451054502516D-08 0.253686210222D+01
    0.288151204586D-05 0.594397902023D-02 0.936537981033D-05 0.515374495316D+04
    0.489600000000D+06 0.279396772385D-07 0.619070039278D+00-0.109896063805D-06
    0.968300988434D+00 0.204250000000D+03 0.123912663686D+01-0.789997192268D-08
    0.703957894100D-09 0.100000000000D+01 0.228500000000D+04 0.000000000000D+00
    0.200000000000D+01 0.000000000000D+00-0.111758708954D-07 0.100000000000D+02
    0.482421000000D+06 0.400000000000D+01 0.000000000000D+00 0.000000000000D+00
 6 23 10 27 16  0  0.0 0.520876143128D-03-0.909494701773D-11 0.000000000000D+00
    0.700000000000D+02-0.918125000000D+02 0.342228540907D-08 0.272448336178D+00
   -0.471621751785D-05 0.290051300544D-02 0.134333968162D-04 0.515377554703D+04
    0.489600000000D+06 0.149011611938D-07-0.369355684118D+00-0.558793544769D-07
    0.989856584551D+00 0.132031250000D+03-0.829872208651D+00-0.759960226822D-08
   -0.878608026122D-10 0.100000000000D+01 0.228500000000D+04 0.000000000000D+00
    0.200000000000D+01 0.000000000000D+00 0.372529029846D-08 0.700000000000D+02
    0.482418000000D+06 0.400000000000D+01 0.000000000000D+00 0.000000000000D+00
 7 23 10 27 16  0  0.0 0.291625037789D-04-0.101181285572D-10 0.000000000000D+00
    0.430000000000D+02 0.603125000000D+01 0.462483550011D-08-0.651417805892D+00
    0.288709998131D-06 0.176116429502D-01 0.136140733957D-04 0.515371880913D+04
    0.489600000000D+06-0.651925802231D-07 0.276231503481D+01 0.277534127235D-06
    0.950677604932D+00 0.113031250000D+03-0.216909077740D+01-0.829105964163D-08
   -0.497520723735D-09 0.100000000000D+01 0.228500000000D+04 0.000000000000D+00
    0.200000000000D+01 0.000000000000D+00-0.111758708954D-07 0.430000000000D+02
    0.482418000000D+06 0.400000000000D+01 0.000000000000D+00 0.000000000000D+00
 9 23 10 27 16  0  0.0-0.203652307391D-04 0.109139364213D-10 0.000000000000D+00
    0.530000000000D+02-0.405000000000D+02 0.531057834976D-08 0.271176657919D+01
   -0.201538205147D-05 0.295349734370D-02 0.438094139099D-05 0.515377679443D+04
    0.489600000000D+06 0.126659870148D-06 0.169015576168D+01 0.186264514923D-07
    0.956538735015D+00 0.291656250000D+03 0.197328610770D+01-0.856142804641D-08
   -0.321084803042D-09 0.100000000000D+01 0.228500000000D+04 0.000000000000D+00
    0.200000000000D+01 0.000000000000D+00 0.931322574616D-09 0.530000000000D+02
    0.482418000000D+06 0.400000000000D+01 0.000000000000D+00 0.000000000000D+00
10 23 10 27 16  0  0.0-0.590216368437D-04-0.147792889038D-11 0.000000000000D+00
    0.106000000000D+03 0.640312500000D+02 0.421696136765D-08-0.204335616203D+01
    0.309757888317D-05 0.898415048141D-02 0.832229852676D-05 0.515368341637D+04
    0.489600000000D+06 0.689178705216D-07 0.665026083451D+00-0.484287738800D-07
    0.980965155719D+00 0.228125000000D+03-0.243621904959D+01-0.781532553968D-08
    0.784318384295D-09 0.100000000000D+01 0.228500000000D+04 0.000000000000D+00
    0.200000000000D+01 0.000000000000D+00 0.232830643654D-08 0.106000000000D+03
    0.482418000000D+06 0.400000000000D+01 0.000000000000D+00 0.000000000000D+00
11 23 10 27 16  0  0.0-0.434057321400D-03-0.169393388205D-10 0.000000000000D+00
    0.960000000000D+02-0.803125000000D+02 0.396302221864D-08 0.152043739806D+01
   -0.422261655331D-05 0.125325389672D-02 0.133588910103D-04 0.515362426186D+04
    0.489600000000D+06-0.353902578354D-07-0.331542070812D+00-0.204890966415D-07
    0.966213559405D+00 0.121218750000D+03-0.264497676023D+01-0.778496713227D-08
   -0.403588239642D-10 0.100000000000D+01 0.228500000000D+04 0.000000000000D+00
    0.200000000000D+01 0.000000000000D+00-0.838190317154D-08 0.352000000000D+03
    0.482418000000D+06 0.400000000000D+01 0.000000000000D+00 0.000000000000D+00
12 23 10 27 16  0  0.0-0.440515112132D-03-0.420641299570D-11 0.000000000000D+00
    0.830000000000D+02 0.116375000000D+03 0.462197823823D-08-0.131178018258D+01
    0.607408583164D-05 0.865546555724D-02 0.617839396000D-05 0.515377082634D+04
    0.489600000000D+06-0.223517417908D-07-0.240619670976D+01 0.227242708206D-06
    0.964279309601D+00 0.262781250000D+03 0.139544451435D+01-0.832177520677D-08
    0.329299430929D-09 0.100000000000D+01 0.228500000000D+04 0.000000000000D+00
    0.200000000000D+01 0.000000000000D+00-0.125728547573D-07 0.830000000000D+02
    0.489020000000D+06 0.400000000000D+01 0.000000000000D+00 0.000000000000D+00
13 23 10 27 16  0  0.0 0.588741153479D-03 0.420641299570D-11 0.000000000000D+00
    0.110000000000D+02-0.549062500000D+02 0.489627537809D-08 0.184088504926D+01
   -0.289641320705D-05 0.764628185425D-02 0.547058880329D-05 0.515365855789D+04
    0.489600000000D+06-0.156462192535D-06 0.185290010370D+01-0.104308128357D-06
    0.970007516021D+00 0.280156250000D+03 0.951919562402D+00-0.830320300459D-08
   -0.432160858377D-09 0.100000000000D+01 0.228500000000D+04 0.000000000000D+00
    0.200000000000D+01 0.000000000000D+00-0.116415321827D-07 0.110000000000D+02
    0.482418000000D+06 0.400000000000D+01 0.000000000000D+00 0.000000000000D+00
14 23 10 27 16  0  0.0 0.226213596761D-03 0.109139364213D-10 0.000000000000D+00
    0.300000000000D+01 0.128062500000D+03 0.488734643474D-08-0.138379311501D+01
    0.664219260216D-05 0.365116528701D-02 0.660307705402D-05 0.515367917061D+04
    0.489600000000D+06 0.000000000000D+00-0.244728786375D+01-0.160187482834D-06
    0.947653864444D+00 0.248187500000D+03-0.294648809260D+01-0.840535011657D-08
    0.435375277985D-09 0.100000000000D+01 0.228500000000D+04 0.000000000000D+00
    0.200000000000D+01 0.000000000000D+00-0.791624188423D-08 0.515000000000D+03
    0.482418000000D+06 0.400000000000D+01 0.000000000000D+00 0.000000000000D+00
15 23 10 27 16  0  0.0 0.912505201995D-04 0.375166564481D-11 0.000000000000D+00
    0.670000000000D+02-0.216875000000D+02 0.601382192839D-08 0.115435819401D+01
   -0.122189521790D-05 0.155048177112D-01 0.376999378204D-05 0.515378350639D+04
    0.489600000000D+06-0.299885869026D-06 0.156772604211D+01-0.223517417908D-07
    0.933071296611D+00 0.297906250000D+03 0.126180739253D+01-0.910359348692D-08
   -0.160006664920D-09 0.100000000000D+01 0.228500000000D+04 0.000000000000D+00
    0.200000000000D+01 0.000000000000D+00-0.107102096081D-07 0.670000000000D+02
    0.482418000000D+06 0.400000000000D+01 0.000000000000D+00 0.000000000000D+00
